1 34077U          19281.92777778  .00000000  00000-0  00000-0 0 00000
2 34077 097.6560 171.3020 0000000 000.0000 110.6790 15.01920000000000
1 34077U          19282.38819444  .00000000  00000-0  00000-0 0 00000
2 34077 097.6550 171.7560 0000000 000.0000 076.9300 15.01920000000000
1 34077U          19282.70555556  .00000000  00000-0  00000-0 0 00000
2 34077 097.6540 172.0690 0000000 000.0000 350.6800 15.01920000000000
1 34077U          19282.95069444  .00000000  00000-0  00000-0 0 00000
2 34077 097.6540 172.3110 0000000 000.0000 234.4300 15.01920000000000
1 34077U          19283.37708333  .00000000  00000-0  00000-0 0 00000
2 34077 097.6530 172.7310 0000000 000.0000 016.9300 15.01920000000000
1 34077U          19283.69652778  .00000000  00000-0  00000-0 0 00000
2 34077 097.6530 173.0460 0000000 000.0000 301.9300 15.01920000000000
1 34077U          19283.94791667  .00000000  00000-0  00000-0 0 00000
2 34077 097.6520 173.2930 0000000 000.0000 219.4300 15.01920000000000
1 34077U          19284.31041667  .00000000  00000-0  00000-0 0 00000
2 34077 097.6510 173.6510 0000000 000.0000 016.9300 15.01920000000000
1 34077U          19284.72638889  .00000000  00000-0  00000-0 0 00000
2 34077 097.6510 174.0610 0000000 000.0000 103.1800 15.01920000000000
1 34077U          19284.96319444  .00000000  00000-0  00000-0 0 00000
2 34077 097.6500 174.2940 0000000 000.0000 301.9300 15.01920000000000
1 34077U          19285.37916667  .00000000  00000-0  00000-0 0 00000
2 34077 097.6500 174.7040 0000000 000.0000 028.1800 15.01920000000000
1 34077U          19285.64444444  .00000000  00000-0  00000-0 0 00000
2 34077 097.6490 174.9660 0000000 000.0000 020.6800 15.01920000000000
1 34077U          19285.99375000  .00000000  00000-0  00000-0 0 00000
2 34077 097.6480 175.3100 0000000 000.0000 106.9300 15.01920000000000
1 34077U          19286.28750000  .00000000  00000-0  00000-0 0 00000
2 34077 097.6480 175.5990 0000000 000.0000 253.1800 15.01920000000000
1 34077U          19286.68055556  .00000000  00000-0  00000-0 0 00000
2 34077 097.6470 175.9870 0000000 000.0000 215.6800 15.01920000000000
1 34077U          19287.07361111  .00000000  00000-0  00000-0 0 00000
2 34077 097.6460 176.3740 0000000 000.0000 178.1810 15.01920000000000
1 34077U          19287.30000000  .00000000  00000-0  00000-0 0 00000
2 34077 097.6460 176.5970 0000000 000.0000 320.6810 15.01920000000000
1 34077U          19287.73402778  .00000000  00000-0  00000-0 0 00000
2 34077 097.6450 177.0250 0000000 000.0000 144.4310 15.01920000000000
1 34077U          19288.01319444  .00000000  00000-0  00000-0 0 00000
2 34077 097.6450 177.3000 0000000 000.0000 211.9310 15.01920000000000
1 34077U          19288.36736111  .00000000  00000-0  00000-0 0 00000
2 34077 097.6440 177.6490 0000000 000.0000 324.4310 15.01920000000000
1 34077U          19288.63333333  .00000000  00000-0  00000-0 0 00000
2 34077 097.6430 177.9120 0000000 000.0000 320.6810 15.01920000000000
1 34077U          19289.05277778  .00000000  00000-0  00000-0 0 00000
2 34077 097.6430 178.3250 0000000 000.0000 065.6810 15.01920000000000
1 34077U          19289.36875000  .00000000  00000-0  00000-0 0 00000
2 34077 097.6420 178.6360 0000000 000.0000 331.9310 15.01920000000000
1 34077U          19289.61041667  .00000000  00000-0  00000-0 0 00000
2 34077 097.6420 178.8750 0000000 000.0000 196.9310 15.01920000000000
1 34077U          19289.96111111  .00000000  00000-0  00000-0 0 00000
2 34077 097.6410 179.2200 0000000 000.0000 290.6810 15.01920000000000
1 34077U          19290.36944444  .00000000  00000-0  00000-0 0 00000
2 34077 097.6400 179.6230 0000000 000.0000 335.6810 15.01920000000000
1 34077U          19290.73888889  .00000000  00000-0  00000-0 0 00000
2 34077 097.6400 179.9870 0000000 000.0000 170.6810 15.01920000000000
1 34077U          19290.97013889  .00000000  00000-0  00000-0 0 00000
2 34077 097.6390 180.2150 0000000 000.0000 339.4310 15.01920000000000
1 34077U          19291.29513889  .00000000  00000-0  00000-0 0 00000
2 34077 097.6390 180.5350 0000000 000.0000 294.4310 15.01920000000000
1 34077U          19291.73611111  .00000000  00000-0  00000-0 0 00000
2 34077 097.6380 180.9700 0000000 000.0000 155.6810 15.01920000000000
1 34077U          19292.00833333  .00000000  00000-0  00000-0 0 00000
2 34077 097.6370 181.2380 0000000 000.0000 185.6810 15.01920000000000
1 34077U          19292.25972222  .00000000  00000-0  00000-0 0 00000
2 34077 097.6370 181.4860 0000000 000.0000 103.1810 15.01920000000000
1 34077U          19292.67083333  .00000000  00000-0  00000-0 0 00000
2 34077 097.6360 181.8910 0000000 000.0000 163.1810 15.01920000000000
1 34077U          19292.95069444  .00000000  00000-0  00000-0 0 00000
2 34077 097.6350 182.1670 0000000 000.0000 234.4310 15.01920000000000
1 34077U          19293.32430556  .00000000  00000-0  00000-0 0 00000
2 34077 097.6350 182.5350 0000000 000.0000 091.9310 15.01920000000000
1 34077U          19293.61944444  .00000000  00000-0  00000-0 0 00000
2 34077 097.6340 182.8260 0000000 000.0000 245.6810 15.01920000000000
1 34077U          19293.95833333  .00000000  00000-0  00000-0 0 00000
2 34077 097.6340 183.1600 0000000 000.0000 275.6810 15.01920000000000
1 34077U          19294.32708333  .00000000  00000-0  00000-0 0 00000
2 34077 097.6330 183.5230 0000000 000.0000 106.9310 15.01920000000000
1 34077U          19294.63611111  .00000000  00000-0  00000-0 0 00000
2 34077 097.6320 183.8280 0000000 000.0000 335.6810 15.01920000000000
1 34077U          19295.00277778  .00000000  00000-0  00000-0 0 00000
2 34077 097.6320 184.1890 0000000 000.0000 155.6810 15.01920000000000
1 34077U          19295.25069444  .00000000  00000-0  00000-0 0 00000
2 34077 097.6310 184.4340 0000000 000.0000 054.4310 15.01920000000000
1 34077U          19295.72916667  .00000000  00000-0  00000-0 0 00000
2 34077 097.6300 184.9050 0000000 000.0000 118.1810 15.01920000000000
1 34077U          19295.93125000  .00000000  00000-0  00000-0 0 00000
2 34077 097.6300 185.1040 0000000 000.0000 129.4310 15.01920000000000
1 34077U          19296.37430556  .00000000  00000-0  00000-0 0 00000
2 34077 097.6290 185.5410 0000000 000.0000 001.9310 15.01920000000000
1 34077U          19296.65486111  .00000000  00000-0  00000-0 0 00000
2 34077 097.6290 185.8180 0000000 000.0000 076.9300 15.01920000000000
1 34077U          19296.96458333  .00000000  00000-0  00000-0 0 00000
2 34077 097.6280 186.1230 0000000 000.0000 309.4300 15.01920000000000
1 34077U          19297.37986111  .00000000  00000-0  00000-0 0 00000
2 34077 097.6270 186.5320 0000000 000.0000 031.9300 15.01920000000000
1 34077U          19297.70277778  .00000000  00000-0  00000-0 0 00000
2 34077 097.6270 186.8500 0000000 000.0000 335.6800 15.01920000000000
1 34077U          19297.97222222  .00000000  00000-0  00000-0 0 00000
2 34077 097.6260 187.1160 0000000 000.0000 350.6800 15.01920000000000
1 34077U          19298.31875000  .00000000  00000-0  00000-0 0 00000
2 34077 097.6260 187.4570 0000000 000.0000 061.9300 15.01920000000000
1 34077U          19298.66666667  .00000000  00000-0  00000-0 0 00000
2 34077 097.6250 187.8000 0000000 000.0000 140.6800 15.01920000000000
1 34077U          19298.99375000  .00000000  00000-0  00000-0 0 00000
2 34077 097.6240 188.1230 0000000 000.0000 106.9300 15.01920000000000
1 34077U          19299.27916667  .00000000  00000-0  00000-0 0 00000
2 34077 097.6240 188.4040 0000000 000.0000 208.1800 15.01920000000000
1 34077U          19299.58888889  .00000000  00000-0  00000-0 0 00000
2 34077 097.6230 188.7090 0000000 000.0000 080.6800 15.01920000000000
1 34077U          19300.06319444  .00000000  00000-0  00000-0 0 00000
2 34077 097.6220 189.1770 0000000 000.0000 121.9300 15.01920000000000
1 34077U          19300.35000000  .00000000  00000-0  00000-0 0 00000
2 34077 097.6220 189.4590 0000000 000.0000 230.6800 15.01920000000000
1 34077U          19300.64305556  .00000000  00000-0  00000-0 0 00000
2 34077 097.6210 189.7480 0000000 000.0000 013.1800 15.01920000000000
1 34077U          19301.07222222  .00000000  00000-0  00000-0 0 00000
2 34077 097.6200 190.1710 0000000 000.0000 170.6790 15.01920000000000
1 34077U          19301.27430556  .00000000  00000-0  00000-0 0 00000
2 34077 097.6200 190.3700 0000000 000.0000 181.9290 15.01920000000000
1 34077U          19301.68333333  .00000000  00000-0  00000-0 0 00000
2 34077 097.6190 190.7730 0000000 000.0000 230.6790 15.01920000000000
1 34077U          19302.03125000  .00000000  00000-0  00000-0 0 00000
2 34077 097.6190 191.1160 0000000 000.0000 309.4290 15.01920000000000
1 34077U          19302.36805556  .00000000  00000-0  00000-0 0 00000
2 34077 097.6180 191.4480 0000000 000.0000 328.1790 15.01920000000000
1 34077U          19302.66597222  .00000000  00000-0  00000-0 0 00000
2 34077 097.6180 191.7420 0000000 000.0000 136.9290 15.01920000000000
1 34077U          19303.01388889  .00000000  00000-0  00000-0 0 00000
2 34077 097.6170 192.0850 0000000 000.0000 215.6790 15.01920000000000
1 34077U          19303.30972222  .00000000  00000-0  00000-0 0 00000
2 34077 097.6160 192.3760 0000000 000.0000 013.1790 15.01920000000000
1 34077U          19303.69652778  .00000000  00000-0  00000-0 0 00000
2 34077 097.6160 192.7580 0000000 000.0000 301.9290 15.01920000000000
1 34077U          19303.94444444  .00000000  00000-0  00000-0 0 00000
2 34077 097.6150 193.0020 0000000 000.0000 200.6780 15.01920000000000
1 34077U          19304.30625000  .00000000  00000-0  00000-0 0 00000
2 34077 097.6150 193.3580 0000000 000.0000 354.4280 15.01920000000000
1 34077U          19304.62777778  .00000000  00000-0  00000-0 0 00000
2 34077 097.6140 193.6750 0000000 000.0000 290.6780 15.01920000000000
1 34077U          19304.97500000  .00000000  00000-0  00000-0 0 00000
2 34077 097.6130 194.0180 0000000 000.0000 005.6780 15.01920000000000
1 34077U          19305.39375000  .00000000  00000-0  00000-0 0 00000
2 34077 097.6130 194.4300 0000000 000.0000 106.9280 15.01920000000000
